{
  "type": "FeatureCollection",
  "features": [
    {
      "type": "Feature",
      "properties": {
        "norad_id": 41866,
        "name": "GOES 16",
        "group": "weather",
        "lat": -0.017581365635177235,
        "lon": 56.13916630933033,
        "alt_km": 35799.97156829001,
        "timestamp": "2025-12-07T05:38:09.551172+00:00",
        "meta_object_name": "GOES 16",
        "meta_object_id": "2016-071A",
        "meta_epoch": "2025-12-06T10:53:33.859968",
        "meta_mean_motion": 1.00271363,
        "meta_eccentricity": 0.00035328,
        "meta_inclination": 0.0632,
        "meta_ra_of_asc_node": 107.6248,
        "meta_arg_of_pericenter": 151.6358,
        "meta_mean_anomaly": 234.9539,
        "meta_ephemeris_type": 0,
        "meta_classification_type": "U",
        "meta_norad_cat_id": 41866,
        "meta_element_set_no": 999,
        "meta_rev_at_epoch": 3317,
        "meta_bstar": 0,
        "meta_mean_motion_dot": -8.4e-07,
        "meta_mean_motion_ddot": 0,
        "tle_line1": "1 41866U 16071A   25340.45386412 -.00000084  00000+0  00000+0 0  9998",
        "tle_line2": "2 41866   0.0632 107.6248 0003532 151.6358 234.9539  1.00271363 33170"
      },
      "geometry": {
        "type": "Point",
        "coordinates": [
          56.13916630933033,
          -0.017581365635177235
        ]
      }
    },
    {
      "type": "Feature",
      "properties": {
        "norad_id": 41882,
        "name": "FENGYUN 4A",
        "group": "weather",
        "lat": -0.7145044276436707,
        "lon": -75.35523289856377,
        "alt_km": 35773.920841900035,
        "timestamp": "2025-12-07T05:38:09.551184+00:00",
        "meta_object_name": "FENGYUN 4A",
        "meta_object_id": "2016-077A",
        "meta_epoch": "2025-12-06T12:32:33.530784",
        "meta_mean_motion": 1.00276587,
        "meta_eccentricity": 0.00050266,
        "meta_inclination": 1.8328,
        "meta_ra_of_asc_node": 82.4533,
        "meta_arg_of_pericenter": 143.1524,
        "meta_mean_anomaly": 161.8915,
        "meta_ephemeris_type": 0,
        "meta_classification_type": "U",
        "meta_norad_cat_id": 41882,
        "meta_element_set_no": 999,
        "meta_rev_at_epoch": 3299,
        "meta_bstar": 0,
        "meta_mean_motion_dot": -3.5e-06,
        "meta_mean_motion_ddot": 0,
        "tle_line1": "1 41882U 16077A   25340.52261031 -.00000350  00000+0  00000+0 0  9995",
        "tle_line2": "2 41882   1.8328  82.4533 0005026 143.1524 161.8915  1.00276587 32995"
      },
      "geometry": {
        "type": "Point",
        "coordinates": [
          -75.35523289856377,
          -0.7145044276436707
        ]
      }
    },
    {
      "type": "Feature",
      "properties": {
        "norad_id": 41884,
        "name": "CYGFM05",
        "group": "weather",
        "lat": -30.760635373855152,
        "lon": -38.49947685775105,
        "alt_km": 428.7942571607455,
        "timestamp": "2025-12-07T05:38:09.551195+00:00",
        "meta_object_name": "CYGFM05",
        "meta_object_id": "2016-078A",
        "meta_epoch": "2025-12-06T14:39:17.464320",
        "meta_mean_motion": 15.4730439,
        "meta_eccentricity": 0.00094399,
        "meta_inclination": 34.9598,
        "meta_ra_of_asc_node": 87.1575,
        "meta_arg_of_pericenter": 125.1112,
        "meta_mean_anomaly": 235.0496,
        "meta_ephemeris_type": 0,
        "meta_classification_type": "U",
        "meta_norad_cat_id": 41884,
        "meta_element_set_no": 999,
        "meta_rev_at_epoch": 49881,
        "meta_bstar": 0.00056967886,
        "meta_mean_motion_dot": 0.00030072,
        "meta_mean_motion_ddot": 0,
        "tle_line1": "1 41884U 16078A   25340.61061880  .00030072  00000+0  56968-3 0  9999",
        "tle_line2": "2 41884  34.9598  87.1575 0009439 125.1112 235.0496 15.47304390498811"
      },
      "geometry": {
        "type": "Point",
        "coordinates": [
          -38.49947685775105,
          -30.760635373855152
        ]
      }
    },
    {
      "type": "Feature",
      "properties": {
        "norad_id": 41885,
        "name": "CYGFM04",
        "group": "weather",
        "lat": 32.191842065502705,
        "lon": 122.42285264312729,
        "alt_km": 410.834288660978,
        "timestamp": "2025-12-07T05:38:09.551206+00:00",
        "meta_object_name": "CYGFM04",
        "meta_object_id": "2016-078B",
        "meta_epoch": "2025-12-06T13:53:02.024160",
        "meta_mean_motion": 15.49983153,
        "meta_eccentricity": 0.00086917,
        "meta_inclination": 34.9353,
        "meta_ra_of_asc_node": 62.3207,
        "meta_arg_of_pericenter": 154.353,
        "meta_mean_anomaly": 205.7624,
        "meta_ephemeris_type": 0,
        "meta_classification_type": "U",
        "meta_norad_cat_id": 41885,
        "meta_element_set_no": 999,
        "meta_rev_at_epoch": 49898,
        "meta_bstar": 0.00057452634,
        "meta_mean_motion_dot": 0.00033335,
        "meta_mean_motion_ddot": 0,
        "tle_line1": "1 41885U 16078B   25340.57849565  .00033335  00000+0  57453-3 0  9994",
        "tle_line2": "2 41885  34.9353  62.3207 0008691 154.3530 205.7624 15.49983153498982"
      },
      "geometry": {
        "type": "Point",
        "coordinates": [
          122.42285264312729,
          32.191842065502705
        ]
      }
    },
    {
      "type": "Feature",
      "properties": {
        "norad_id": 41886,
        "name": "CYGFM02",
        "group": "weather",
        "lat": 27.73132162511839,
        "lon": 105.25439925210074,
        "alt_km": 409.26555845907023,
        "timestamp": "2025-12-07T05:38:09.551221+00:00",
        "meta_object_name": "CYGFM02",
        "meta_object_id": "2016-078C",
        "meta_epoch": "2025-12-06T13:57:30.461184",
        "meta_mean_motion": 15.51337898,
        "meta_eccentricity": 0.00104246,
        "meta_inclination": 34.9442,
        "meta_ra_of_asc_node": 60.705,
        "meta_arg_of_pericenter": 153.6447,
        "meta_mean_anomaly": 206.4808,
        "meta_ephemeris_type": 0,
        "meta_classification_type": "U",
        "meta_norad_cat_id": 41886,
        "meta_element_set_no": 999,
        "meta_rev_at_epoch": 49911,
        "meta_bstar": 0.00058158443,
        "meta_mean_motion_dot": 0.00035452,
        "meta_mean_motion_ddot": 0,
        "tle_line1": "1 41886U 16078C   25340.58160256  .00035452  00000+0  58158-3 0  9994",
        "tle_line2": "2 41886  34.9442  60.7050 0010424 153.6447 206.4808 15.51337898499116"
      },
      "geometry": {
        "type": "Point",
        "coordinates": [
          105.25439925210074,
          27.73132162511839
        ]
      }
    },
    {
      "type": "Feature",
      "properties": {
        "norad_id": 41887,
        "name": "CYGFM01",
        "group": "weather",
        "lat": -34.71070167697269,
        "lon": 2.6734841466486037,
        "alt_km": 430.4605901844807,
        "timestamp": "2025-12-07T05:38:09.551231+00:00",
        "meta_object_name": "CYGFM01",
        "meta_object_id": "2016-078D",
        "meta_epoch": "2025-12-06T14:31:10.443072",
        "meta_mean_motion": 15.47873891,
        "meta_eccentricity": 0.00090782,
        "meta_inclination": 34.9427,
        "meta_ra_of_asc_node": 89.5869,
        "meta_arg_of_pericenter": 116.1363,
        "meta_mean_anomaly": 244.0293,
        "meta_ephemeris_type": 0,
        "meta_classification_type": "U",
        "meta_norad_cat_id": 41887,
        "meta_element_set_no": 999,
        "meta_rev_at_epoch": 49875,
        "meta_bstar": 0.00057301935,
        "meta_mean_motion_dot": 0.00030857,
        "meta_mean_motion_ddot": 0,
        "tle_line1": "1 41887U 16078D   25340.60498198  .00030857  00000+0  57302-3 0  9991",
        "tle_line2": "2 41887  34.9427  89.5869 0009078 116.1363 244.0293 15.47873891498759"
      },
      "geometry": {
        "type": "Point",
        "coordinates": [
          2.6734841466486037,
          -34.71070167697269
        ]
      }
    },
    {
      "type": "Feature",
      "properties": {
        "norad_id": 41888,
        "name": "CYGFM08",
        "group": "weather",
        "lat": -29.562314479622597,
        "lon": 14.208342893277711,
        "alt_km": 427.66429055264507,
        "timestamp": "2025-12-07T05:38:09.551242+00:00",
        "meta_object_name": "CYGFM08",
        "meta_object_id": "2016-078E",
        "meta_epoch": "2025-12-06T14:25:31.629792",
        "meta_mean_motion": 15.49060327,
        "meta_eccentricity": 0.00108244,
        "meta_inclination": 34.9461,
        "meta_ra_of_asc_node": 72.6755,
        "meta_arg_of_pericenter": 141.8988,
        "meta_mean_anomaly": 218.2501,
        "meta_ephemeris_type": 0,
        "meta_classification_type": "U",
        "meta_norad_cat_id": 41888,
        "meta_element_set_no": 999,
        "meta_rev_at_epoch": 49898,
        "meta_bstar": 0.00057361432,
        "meta_mean_motion_dot": 0.00032233,
        "meta_mean_motion_ddot": 0,
        "tle_line1": "1 41888U 16078E   25340.60106053  .00032233  00000+0  57361-3 0  9993",
        "tle_line2": "2 41888  34.9461  72.6755 0010824 141.8988 218.2501 15.49060327498988"
      },
      "geometry": {
        "type": "Point",
        "coordinates": [
          14.208342893277711,
          -29.562314479622597
        ]
      }
    }
  ]
}